satname,norad_id,inclination_deg,eccentricity,mean_motion_rev_per_day,perigee_km,apogee_km,l1,l2
STARLINK-1404,45686,53.1577,0.000405,15.39779698,443.99613259707803,449.52429934201245,1 45686U 20035AF  26115.49164598  .00043358  00000+0  10819-2 0  9993,2 45686  53.1577 190.5128 0004050  10.8969 349.2123 15.39779698326163
STARLINK-1413,45689,53.1583,0.0002395,15.31409943,469.96426336447985,473.245289675433,1 45689U 20035AJ  26115.59109044  .00034836  00000+0  11393-2 0  9991,2 45689  53.1583 191.6477 0002395  32.4119 327.7029 15.31409943326070
STARLINK-1417,45693,53.0496,0.0004901,15.14824936,518.1285735066886,524.891607584842,1 45693U 20035AN  26115.93722876  .00016669  00000+0  90067-3 0  9998,2 45693  53.0496 199.7667 0004901  12.6920 347.4195 15.14824936326057
STARLINK-1420,45695,53.0461,0.0007017,15.63026415,374.17930528234047,383.6621601044035,1 45695U 20035AQ  26115.49203111  .00079264  00000+0  85307-3 0  9998,2 45695  53.0461 154.9677 0007017 354.1616   5.9315 15.63026415326658
STARLINK-1422,45696,53.1593,0.0002427,15.31585604,469.41871975941285,472.74333018873585,1 45696U 20035AR  26115.59636344  .00032472  00000+0  10573-2 0  9990,2 45696  53.1593 191.6012 0002427  24.4533 335.6583 15.31585604326152
STARLINK-1351,45697,53.0464,0.0007701,15.60198239,381.87406348827153,392.293856811094,1 45697U 20035AS  26115.39392861  .00086712  00000+0  10392-2 0  9997,2 45697  53.0464 155.2536 0007701 354.4385   5.6540 15.60198239326644
STARLINK-1400,45700,53.0446,0.0005989,15.58969583,386.5842139214192,394.6918526562922,1 45700U 20035AV  26115.93056318  .00080086  00000+0  10075-2 0  9992,2 45700  53.0446 154.5899 0005989 326.4679  33.5952 15.58969583326691
STARLINK-1403,45701,53.1559,0.0002051,15.30493518,472.9333748530835,475.74426043348103,1 45701U 20035AW  26115.44899616  .00036113  00000+0  12144-2 0  9996,2 45701  53.1559 179.5128 0002051  26.7807 333.3299 15.30493518326303
STARLINK-1407,45703,53.0294,0.0002694,15.6754921,364.100357878835,367.7340542850725,1 45703U 20035AY  26115.33398898  .00066415  00000+0  59929-3 0  9993,2 45703  53.0294  86.9573 0002694 310.9931  49.0851 15.67549210327592
STARLINK-1411,45706,53.0368,0.000559,15.73391638,345.45127260838126,352.9724486345549,1 45706U 20035BB  26116.00003472  .00134990  00000+0  94227-3 0  9996,2 45706  53.0368 108.3086 0005590  38.1755 326.2917 15.73391638  5925
STARLINK-1423,45710,53.044,0.0007861,15.64690405,368.82134040958226,379.43725348164116,1 45710U 20035BF  26115.80546360  .00043957  00000+0  44735-3 0  9997,2 45710  53.0440 153.1931 0007861 329.5250  30.5306 15.64690405326699
STARLINK-1433,45711,53.0442,0.0007466,15.64227204,370.4199872542831,380.5044616162104,1 45711U 20035BG  26115.90729847  .00100988  00000+0  10324-2 0  9996,2 45711  53.0442 151.1642 0007466 338.3495  21.7203 15.64227204326735
STARLINK-1434,45712,53.051,0.0003854,15.30894701,470.5011191118829,475.78208465821626,1 45712U 20035BH  26115.50229113  .00030167  00000+0  10045-2 0  9995,2 45712  53.0510 162.4654 0003854 330.5855  29.4927 15.30894701326554
STARLINK-1465,45731,53.0496,0.0004589,15.57387568,392.11283798714703,398.329426080727,1 45731U 20038B   26115.85709042  .00072347  00000+0  96770-3 0  9997,2 45731  53.0496 355.5330 0004589 109.4365 250.7142 15.57387568323719
STARLINK-1471,45735,53.0449,0.0001949,15.51399621,411.3151997251325,413.96224410153445,1 45735U 20038F   26115.83846291  .00030979  00000+0  52276-3 0  9995,2 45735  53.0449 275.6869 0001949  56.8479 303.2717 15.51399621324842
STARLINK-1480,45741,53.0517,0.0002408,15.58924302,389.13915202719,392.39905720717434,1 45741U 20038M   26115.85604908  .00044905  00000+0  57149-3 0  9999,2 45741  53.0517 349.3888 0002408 181.2940 178.8066 15.58924302323818
STARLINK-1500,45744,53.0375,0.0003405,15.37230252,451.97759781536115,456.63049016631976,1 45744U 20038Q   26115.84875114  .00027836  00000+0  75995-3 0  9993,2 45744  53.0375 331.0974 0003405  79.2196 280.9190 15.37230252324066
STARLINK-1504,45746,53.0204,9.13e-05,15.56289943,397.7868161540591,399.0242128172049,1 45746U 20038S   26115.67502282  .00032672  00000+0  46137-3 0  9999,2 45746  53.0204 274.9455 0000913  20.8829 339.2219 15.56289943324820
STARLINK-1506,45747,53.0755,0.000402,15.27625871,480.1536036051075,485.66988679624956,1 45747U 20038T   26115.85547864  .00008550  00000+0  32479-3 0  9997,2 45747  53.0755 343.9808 0004020  64.3207 295.8206 15.27625871323898
STARLINK-1464,45751,53.049,0.0002406,15.49749515,415.8231954672592,419.0932358850423,1 45751U 20038X   26115.92842603  .00064290  00000+0  11366-2 0  9993,2 45751  53.0490 339.0387 0002406 122.9079 237.2160 15.49749515323964
STARLINK-1477,45754,53.0511,0.0003288,15.16714194,513.5125961026852,518.0460354719471,1 45754U 20038AA  26115.84831645  .00023030  00000+0  11729-2 0  9991,2 45754  53.0511 358.2026 0003288 118.3232 241.8094 15.16714194323688
STARLINK-1478,45755,53.0468,0.0001492,15.63063475,377.8057893111045,379.8220634675399,1 45755U 20038AB  26115.87306985  .00084050  00000+0  90329-3 0  9992,2 45755  53.0468 328.3188 0001492 115.6268 244.4899 15.63063475324090
STARLINK-1493,45759,53.0503,0.0004332,15.58034494,390.41264309541293,396.27945600954627,1 45759U 20038AF  26115.90464530  .00077359  00000+0  10090-2 0  9991,2 45759  53.0503 336.4818 0004332 183.1570 176.9415 15.58034494323989
STARLINK-1494,45760,53.0433,0.0002764,15.85764854,312.32220532814154,316.02171372096655,1 45760U 20038AG  26116.00003472  .00178149  00000+0  70462-3 0  9998,2 45760  53.0433 274.4022 0002764 247.1107   8.7610 15.85764854  6016
STARLINK-1502,45764,53.0488,0.0006606,15.54613193,398.7974604492747,407.7570649731688,1 45764U 20038AL  26115.92215111  .00070919  00000+0  10508-2 0  9997,2 45764  53.0488 339.0880 0006606 166.1961 193.9231 15.54613193323964
STARLINK-1470,45772,53.0452,0.0002604,15.3197872,468.1260401295058,471.69250262763944,1 45772U 20038AU  26115.83487601  .00037836  00000+0  12141-2 0  9997,2 45772  53.0452 314.7939 0002604 170.6144 189.4905 15.31978720324296
STARLINK-1482,45773,53.1604,0.000283,15.34145874,461.5224889228157,465.3948320666568,1 45773U 20038AV  26115.84513254  .00048850  00000+0  14591-2 0  9992,2 45773  53.1604 331.3516 0002830 171.4064 188.6988 15.34145874324071
STARLINK-1496,45780,53.0478,0.0002122,15.56113431,397.47986184388265,400.35604396589497,1 45780U 20038BC  26115.83539222  .00080074  00000+0  11215-2 0  9996,2 45780  53.0478 310.8137 0002122 289.5814  70.4967 15.56113431324338
STARLINK-1513,45786,53.1617,0.0001589,15.31701967,469.64584608444784,471.82241733010414,1 45786U 20038BJ  26115.83726832  .00000015  00000+0  12254-4 0  9990,2 45786  53.1617 332.0403 0001589  81.0000 279.1181 15.31701967324066
STARLINK-1522,46027,53.0632,0.000122,15.11238245,531.5795210593378,533.2656976040134,1 46027U 20055A   26115.73547137  .00017078  00000+0  10193-2 0  9991,2 46027  53.0632 274.0866 0001220 214.3843 145.7069 15.11238245315994
STARLINK-1523,46028,53.1602,0.0001058,15.30194065,474.5077037929932,475.9578768406245,1 46028U 20055B   26115.74483937  .00001101  00000+0  49311-4 0  9996,2 46028  53.1602 268.1360 0001058  85.4803 274.6319 15.30194065316104
STARLINK-1526,46029,53.1602,0.0001248,15.3019024,474.3889091998117,476.0995131501222,1 46029U 20055C   26115.80383315  .00000720  00000+0  36437-4 0  9994,2 46029  53.1602 267.8727 0001248  91.1847 268.9297 15.30190240316103
STARLINK-1555,46032,53.1585,9.51e-05,15.3019982,474.5638530340184,475.86736069984545,1 46032U 20055F   26115.72271891 -.00001149  00000+0 -26694-4 0  9996,2 46032  53.1585 268.2308 0000951  55.5973 304.5117 15.30199820316090
STARLINK-1556,46033,53.1623,9.97e-05,15.30206077,474.51364726047177,475.88020204504755,1 46033U 20055G   26115.83648865  .00000446  00000+0  27169-4 0  9993,2 46033  53.1623 267.7184 0000997  75.5372 284.5740 15.30206077316086
STARLINK-1557,46034,53.1574,9.42e-05,15.29360537,477.07687907337095,478.36852304104923,1 46034U 20055H   26115.70600933  .00005254  00000+0  19426-3 0  9992,2 46034  53.1574 268.2882 0000942  61.0331 299.0763 15.29360537316062
STARLINK-1558,46035,53.162,0.0001101,15.30196657,474.47049587109814,475.9796061947345,1 46035U 20055J   26115.84702438  .00000332  00000+0  23317-4 0  9998,2 46035  53.1620 267.6667 0001101  88.9536 271.1591 15.30196657316110
STARLINK-1560,46036,53.1579,9.72e-05,15.29644478,476.2079528522818,477.5405670412147,1 46036U 20055K   26115.70251594  .00038350  00000+0  13227-2 0  9994,2 46036  53.1579 268.3431 0000972  69.7235 290.3870 15.29644478316096
STARLINK-1567,46038,53.0823,0.0004007,15.96552087,281.3236454016769,286.66267651266753,1 46038U 20055M   26116.00003472  .00430456  86768-4  10007-2 0  9996,2 46038  53.0823 255.3612 0004007 326.5163  20.2949 15.96552087  3248
STARLINK-1569,46039,53.1581,0.0001088,15.3019472,474.48518817252534,475.9764810133338,1 46039U 20055N   26115.85018304  .00000220  00000+0  19550-4 0  9995,2 46039  53.1581 267.6452 0001088  94.0391 266.0734 15.30194720316103
STARLINK-1582,46043,53.1582,9.78e-05,15.31713781,470.02909893726064,471.3687312422535,1 46043U 20055S   26115.90978168  .00011803  00000+0  39133-3 0  9996,2 46043  53.1582 267.2332 0000978  94.7238 265.3875 15.31713781316110
STARLINK-1591,46045,53.1599,9.71e-05,15.30191929,474.5737052505192,475.9046309023606,1 46045U 20055U   26115.88284193  .00001323  00000+0  56809-4 0  9999,2 46045  53.1599 267.4961 0000971  87.0042 273.1070 15.30191929316095
STARLINK-1524,46047,53.1572,0.0001038,15.30196299,474.5147408686353,475.93749905233926,1 46047U 20055W   26115.87700673  .00003631  00000+0  13468-3 0  9993,2 46047  53.1572 254.6578 0001038  92.8059 267.3060 15.30196299316298
STARLINK-1527,46048,53.1601,9.02e-05,15.31710108,470.0920979821958,471.3276299564559,1 46048U 20055X   26115.87444734  .00002846  00000+0  10341-3 0  9991,2 46048  53.1601 254.6737 0000902  81.7784 278.3320 15.31710108316271
